[{"OBJECT_NAME":"HODOYOSHI-4","OBJECT_ID":"2014-033B","EPOCH":"2026-03-09T23:32:21.950304","MEAN_MOTION":14.87847067,"ECCENTRICITY":0.0022404,"INCLINATION":97.5452,"RA_OF_ASC_NODE":258.5987,"ARG_OF_PERICENTER":275.1008,"MEAN_ANOMALY":84.7652,"EPHEMERIS_TYPE":0,"CLASSIFICATION_TYPE":"U","NORAD_CAT_ID":40011,"ELEMENT_SET_NO":999,"REV_AT_EPOCH":63405,"BSTAR":0.00030167959,"MEAN_MOTION_DOT":2.718e-5,"MEAN_MOTION_DDOT":0},{"OBJECT_NAME":"CSG-2","OBJECT_ID":"2022-008A","EPOCH":"2026-03-09T23:30:39.658752","MEAN_MOTION":14.82158958,"ECCENTRICITY":0.00013321,"INCLINATION":97.8865,"RA_OF_ASC_NODE":254.0106,"ARG_OF_PERICENTER":78.3259,"MEAN_ANOMALY":281.8104,"EPHEMERIS_TYPE":0,"CLASSIFICATION_TYPE":"U","NORAD_CAT_ID":51444,"ELEMENT_SET_NO":999,"REV_AT_EPOCH":22189,"BSTAR":5.5111753e-5,"MEAN_MOTION_DOT":3.87e-6,"MEAN_MOTION_DDOT":0}]
